0 FENGYUN 1C DEB
1 29779U 99025BV  13281.51857340  .00000190  00000-0  12949-3 0   536
2 29779 099.0128 283.4318 0066803 144.2782 340.3771 14.10326603346616
0 FENGYUN 1C DEB
1 29779U 99025BV  13283.70593756  .00000432  00000-0  26294-3 0   545
2 29779 099.0125 285.6243 0066894 138.2231 285.9331 14.10326856346926
0 FENGYUN 1C DEB
1 29779U 99025BV  13285.84538434  .00000431  00000-0  26262-3 0   559
2 29779 099.0123 287.7685 0066969 132.3052 348.1962 14.10328614347226
0 FENGYUN 1C DEB
1 29779U 99025BV  13288.47849766  .00000286  00000-0  18251-3 0   562
2 29779 099.0122 290.4073 0067024 125.0054 036.8979 14.10333759347596
0 FENGYUN 1C DEB
1 29779U 99025BV  13290.52823765  .00000166  00000-0  11625-3 0   578
2 29779 099.0123 292.4613 0067051 119.3331 003.7526 14.10335706347880
0 FENGYUN 1C DEB
1 29779U 99025BV  13292.99783059  .00000422  00000-0  25754-3 0   586
2 29779 099.0127 294.9360 0067067 112.5008 302.2936 14.10334930348233
0 FENGYUN 1C DEB
1 29779U 99025BV  13295.50200925  .00000571  00000-0  33957-3 0   592
2 29779 099.0128 297.4455 0067083 105.5824 056.4204 14.10336482348581
